[{"OBJECT_NAME":"TOMORROW-S2","OBJECT_ID":"2024-149T","EPOCH":"2026-03-09T18:02:42.746496","MEAN_MOTION":15.30674935,"ECCENTRICITY":0.0001648,"INCLINATION":97.3857,"RA_OF_ASC_NODE":150.0385,"ARG_OF_PERICENTER":234.3331,"MEAN_ANOMALY":125.7757,"EPHEMERIS_TYPE":0,"CLASSIFICATION_TYPE":"U","NORAD_CAT_ID":60485,"ELEMENT_SET_NO":999,"REV_AT_EPOCH":8686,"BSTAR":0.00027683033,"MEAN_MOTION_DOT":8.133e-5,"MEAN_MOTION_DDOT":0},{"OBJECT_NAME":"STARLINK-34647","OBJECT_ID":"2025-157A","EPOCH":"2026-03-09T23:23:10.227552","MEAN_MOTION":15.30218639,"ECCENTRICITY":0.00012613,"INCLINATION":53.1599,"RA_OF_ASC_NODE":344.6184,"ARG_OF_PERICENTER":67.4333,"MEAN_ANOMALY":292.6802,"EPHEMERIS_TYPE":0,"CLASSIFICATION_TYPE":"U","NORAD_CAT_ID":64904,"ELEMENT_SET_NO":999,"REV_AT_EPOCH":3615,"BSTAR":0.0014253055,"MEAN_MOTION_DOT":0.00042118,"MEAN_MOTION_DDOT":0}]
